NORAD_CAT_ID,OBJECT_NAME,OBJECT_TYPE,EPOCH,MEAN_MOTION,ECCENTRICITY,INCLINATION,RA_OF_ASC_NODE,ARG_OF_PERICENTER,MEAN_ANOMALY,BSTAR,MEAN_MOTION_DOT,MEAN_MOTION_DDOT,TLE_LINE0,TLE_LINE1,TLE_LINE2,SEMIMAJOR_AXIS,PERIOD,APOGEE,PERIGEE,DECAYED
53424.0,STARLINK-4532,PAYLOAD,2023-06-22 12:11:23,15.08850387,8.66e-05,53.2132,243.7094,66.5815,293.5268,0.00030845,4.626e-05,0.0,0 STARLINK-4532,1 53424U 22097AN  23173.50791066  .00004626  00000-0  30845-3 0  9999,2 53424  53.2132 243.7094 0000866  66.5815 293.5268 15.08850387 48536,6917.849,95.437,540.313,539.115,0.0
53424.0,STARLINK-4532,PAYLOAD,2023-06-22 21:43:42,15.08843594,8.37e-05,53.2136,241.9264,92.1372,267.9716,0.0001888,2.719e-05,0.0,0 STARLINK-4532,1 53424U 22097AN  23173.90535344  .00002719  00000-0  18880-3 0  9994,2 53424  53.2136 241.9264 0000837  92.1372 267.9716 15.08843594 48591,6917.869,95.437,540.313,539.155,0.0
53424.0,STARLINK-4532,PAYLOAD,2023-06-23 21:34:29,15.08842758,9.23e-05,53.2143,237.4652,69.6654,290.4437,0.00016163,2.286e-05,0.0,0 STARLINK-4532,1 53424U 22097AN  23174.89895480  .00002286  00000-0  16163-3 0  9994,2 53424  53.2143 237.4652 0000923  69.6654 290.4437 15.08842758 48747,6917.872,95.437,540.375,539.098,0.0
53424.0,STARLINK-4532,PAYLOAD,2023-06-25 03:46:49,15.08843828,0.0001018,53.2142,231.8152,90.6888,269.4221,0.00020689,3.007e-05,0.0,0 STARLINK-4532,1 53424U 22097AN  23176.15751659  .00003007  00000-0  20689-3 0  9994,2 53424  53.2142 231.8152 0001018  90.6888 269.4221 15.08843828 48935,6917.869,95.437,540.438,539.029,0.0
53424.0,STARLINK-4532,PAYLOAD,2023-06-26 09:59:09,15.08836023,0.0001074,53.2149,226.1648,95.4895,264.6219,5.4098e-05,5.73e-06,0.0,0 STARLINK-4532,1 53424U 22097AN  23177.41608094  .00000573  00000-0  54098-4 0  9995,2 53424  53.2149 226.1648 0001074  95.4895 264.6219 15.08836023 49127,6917.893,95.438,540.501,539.015,0.0
53424.0,STARLINK-4532,PAYLOAD,2023-06-27 09:49:56,15.088431,9.28e-05,53.2153,221.7045,82.4425,277.6673,9.7997e-05,1.272e-05,0.0,0 STARLINK-4532,1 53424U 22097AN  23178.40967626  .00001272  00000-0  97997-4 0  9996,2 53424  53.2153 221.7045 0000928  82.4425 277.6673 15.08843100 49274,6917.871,95.437,540.378,539.094,0.0
53424.0,STARLINK-4532,PAYLOAD,2023-06-28 03:19:11,15.08833778,9.38e-05,53.2151,218.4335,72.1352,287.9742,6.8141e-05,7.97e-06,0.0,0 STARLINK-4532,1 53424U 22097AN  23179.13832388  .00000797  00000-0  68141-4 0  9993,2 53424  53.2151 218.4335 0000938  72.1352 287.9742 15.08833778 49386,6917.899,95.438,540.413,539.116,0.0
53424.0,STARLINK-4532,PAYLOAD,2023-06-29 11:06:53,15.08839279,9.95e-05,53.2154,212.4868,74.4589,285.6512,3.0474e-05,1.97e-06,0.0,0 STARLINK-4532,1 53424U 22097AN  23180.46312344  .00000197  00000-0  30474-4 0  9998,2 53424  53.2154 212.4868 0000995  74.4589 285.6512 15.08839279 49588,6917.883,95.438,540.436,539.059,0.0
53424.0,STARLINK-4532,PAYLOAD,2023-06-30 12:33:03,15.0884035,9.43e-05,53.215,207.7278,79.0294,281.0804,7.8371e-05,9.6e-06,0.0,0 STARLINK-4532,1 53424U 22097AN  23181.52296178  .00000960  00000-0  78371-4 0  9998,2 53424  53.2150 207.7278 0000943  79.0294 281.0804 15.08840350 49747,6917.879,95.438,540.397,539.092,0.0
53424.0,STARLINK-4532,PAYLOAD,2023-07-01 18:45:23,15.08840235,9.51e-05,53.215,202.0776,79.7288,280.3812,4.5257e-05,4.33e-06,0.0,0 STARLINK-4532,1 53424U 22097AN  23182.78152381  .00000433  00000-0  45257-4 0  9996,2 53424  53.2150 202.0776 0000951  79.7288 280.3812 15.08840235 49931,6917.88,95.438,540.403,539.087,0.0
53424.0,STARLINK-4532,PAYLOAD,2023-07-03 07:19:15,15.08839716,9.79e-05,53.2154,195.238,79.0342,281.076,5.4409e-05,5.78e-06,0.0,0 STARLINK-4532,1 53424U 22097AN  23184.30504301  .00000578  00000-0  54409-4 0  9998,2 53424  53.2154 195.2380 0000979  79.0342 281.0760 15.08839716 50162,6917.881,95.438,540.424,539.069,0.0
53424.0,STARLINK-4532,PAYLOAD,2023-07-04 10:20:49,15.08840023,0.000104,53.2156,190.183,76.8992,283.2117,1.5516e-05,-4.1e-07,0.0,0 STARLINK-4532,1 53424U 22097AN  23185.43112400 -.00000041  00000-0  15516-4 0  9990,2 53424  53.2156 190.1830 0001040  76.8992 283.2117 15.08840023 50336,6917.88,95.438,540.465,539.026,0.0
53424.0,STARLINK-4532,PAYLOAD,2023-07-05 16:33:09,15.08834663,0.0001079,53.2158,184.5332,75.9188,284.1924,-8.4533e-06,-4.22e-06,0.0,0 STARLINK-4532,1 53424U 22097AN  23186.68968937 -.00000422  00000-0 -84533-5 0  9992,2 53424  53.2158 184.5332 0001079  75.9188 284.1924 15.08834663 50521,6917.897,95.438,540.508,539.015,0.0
53424.0,STARLINK-4532,PAYLOAD,2023-07-06 08:27:01,15.08827115,0.0001075,53.2158,181.5595,79.5007,280.6106,-3.9493e-05,-9.16e-06,0.0,0 STARLINK-4532,1 53424U 22097AN  23187.35209899 -.00000916  00000-0 -39493-4 0  9994,2 53424  53.2158 181.5595 0001075  79.5007 280.6106 15.08827115 50623,6917.92,95.438,540.528,539.041,0.0
53424.0,STARLINK-4532,PAYLOAD,2023-07-07 16:14:44,15.0883441,0.000109,53.2159,175.612,80.8217,279.2899,3.9346e-05,3.38e-06,0.0,0 STARLINK-4532,1 53424U 22097AN  23188.67690067  .00000338  00000-0  39346-4 0  9994,2 53424  53.2159 175.6120 0001090  80.8217 279.2899 15.08834410 50828,6917.897,95.438,540.517,539.008,0.0
53424.0,STARLINK-4532,PAYLOAD,2023-07-09 04:48:35,15.08845578,0.0001141,53.2154,168.7726,82.194,277.9182,0.00016156,2.285e-05,0.0,0 STARLINK-4532,1 53424U 22097AN  23190.20041440  .00002285  00000-0  16156-3 0  9997,2 53424  53.2154 168.7726 0001141  82.1940 277.9182 15.08845578 51056,6917.863,95.437,540.518,538.939,0.0
53424.0,STARLINK-4532,PAYLOAD,2023-07-10 04:39:22,15.08845247,0.0001223,53.2164,164.3124,88.5257,271.5875,6.5259e-05,7.51e-06,0.0,0 STARLINK-4532,1 53424U 22097AN  23191.19401455  .00000751  00000-0  65259-4 0  9997,2 53424  53.2164 164.3124 0001223  88.5257 271.5875 15.08845247 51202,6917.864,95.437,540.575,538.883,0.0
53424.0,STARLINK-4532,PAYLOAD,2023-07-11 07:40:55,15.08847586,0.0001245,53.2157,159.2566,87.3981,272.7153,1.0491e-05,-1.21e-06,0.0,0 STARLINK-4532,1 53424U 22097AN  23192.32009006 -.00000121  00000-0  10491-4 0  9999,2 53424  53.2157 159.2566 0001245  87.3981 272.7153 15.08847586 51370,6917.857,95.437,540.583,538.861,0.0
53424.0,STARLINK-4532,PAYLOAD,2023-07-12 07:31:43,15.08841735,0.0001286,53.2152,154.7957,91.341,268.7729,3.1904e-05,2.2e-06,0.0,0 STARLINK-4532,1 53424U 22097AN  23193.31369222  .00000220  00000-0  31904-4 0  9999,2 53424  53.2152 154.7957 0001286  91.3410 268.7729 15.08841735 51527,6917.875,95.437,540.63,538.85,0.0
53424.0,STARLINK-4532,PAYLOAD,2023-07-14 07:13:17,15.08837232,0.0001185,53.216,145.8749,101.1134,258.9992,3.1e-05,2.06e-06,0.0,0 STARLINK-4532,1 53424U 22097AN  23195.30090028  .00000206  00000-0  31000-4 0  9996,2 53424  53.2160 145.8749 0001185 101.1134 258.9992 15.08837232 51820,6917.889,95.438,540.574,538.934,0.0
53424.0,STARLINK-4532,PAYLOAD,2023-07-15 05:28:40,15.08851784,0.0001085,53.2163,141.7119,95.1984,264.9132,0.00014691,2.052e-05,0.0,0 STARLINK-4532,1 53424U 22097AN  23196.22824942  .00002052  00000-0  14691-3 0  9995,2 53424  53.2163 141.7119 0001085  95.1984 264.9132 15.08851784 51969,6917.844,95.437,540.46,538.959,0.0
53424.0,STARLINK-4532,PAYLOAD,2023-07-16 02:08:42,15.08837617,0.0001193,53.2164,137.8456,98.807,261.3057,6.684e-05,7.76e-06,0.0,0 STARLINK-4532,1 53424U 22097AN  23197.08938274  .00000776  00000-0  66840-4 0  9999,2 53424  53.2164 137.8456 0001193  98.8070 261.3057 15.08837617 52097,6917.888,95.438,540.578,538.927,0.0
53424.0,STARLINK-4532,PAYLOAD,2023-07-17 13:07:10,15.08852252,0.0001051,53.2159,131.3038,95.5316,264.5796,5.2358e-05,5.46e-06,0.0,0 STARLINK-4532,1 53424U 22097AN  23198.54665359  .00000546  00000-0  52358-4 0  9996,2 53424  53.2159 131.3038 0001051  95.5316 264.5796 15.08852252 52318,6917.843,95.437,540.435,538.981,0.0
53424.0,STARLINK-4532,PAYLOAD,2023-07-19 01:41:04,15.08839061,0.0001404,53.2165,124.468,76.2918,283.823,-5.0717e-05,-1.095e-05,0.0,0 STARLINK-4532,1 53424U 22097AN  23200.07018586 -.00001095  00000-0 -50717-4 0  9991,2 53424  53.2165 124.4680 0001404  76.2918 283.8230 15.08839061 52542,6917.883,95.438,540.72,538.777,0.0
53424.0,STARLINK-4532,PAYLOAD,2023-07-20 23:47:15,15.08831542,0.0001287,53.2174,115.8427,86.6853,273.4286,7.1069e-05,8.43e-06,0.0,0 STARLINK-4532,1 53424U 22097AN  23201.99115027  .00000843  00000-0  71069-4 0  9992,2 53424  53.2174 115.8427 0001287  86.6853 273.4286 15.08831542 52831,6917.906,95.438,540.662,538.881,0.0
53424.0,STARLINK-4532,PAYLOAD,2023-07-24 02:30:23,15.08833134,0.0001399,53.2175,101.869,92.7799,267.3353,-4.4988e-05,-1.004e-05,0.0,0 STARLINK-4532,1 53424U 22097AN  23205.10443898 -.00001004  00000-0 -44988-4 0  9991,2 53424  53.2175 101.8690 0001399  92.7799 267.3353 15.08833134 53781,6917.901,95.438,540.734,538.799,0.0
53424.0,STARLINK-4532,PAYLOAD,2023-07-25 02:21:09,15.08849746,0.0001089,53.2164,97.4037,85.9495,274.1622,0.00011641,1.566e-05,0.0,0 STARLINK-4532,1 53424U 22097AN  23206.09802437  .00001566  00000-0  11641-3 0  9998,2 53424  53.2164  97.4037 0001089  85.9495 274.1622 15.08849746 53935,6917.851,95.437,540.469,538.962,0.0
53424.0,STARLINK-4532,PAYLOAD,2023-07-26 02:11:56,15.08845916,0.000146,53.2173,92.9435,93.4163,266.6997,8.9222e-05,1.133e-05,0.0,0 STARLINK-4532,1 53424U 22097AN  23207.09163026  .00001133  00000-0  89222-4 0  9994,2 53424  53.2173  92.9435 0001460  93.4163 266.6997 15.08845916 54089,6917.862,95.437,540.737,538.717,0.0
53424.0,STARLINK-4532,PAYLOAD,2023-07-27 02:02:41,15.0887615,0.0001428,53.2165,88.482,112.7817,247.3326,0.00035526,5.376e-05,0.0,0 STARLINK-4532,1 53424U 22097AN  23208.08519950  .00005376  00000-0  35526-3 0  9995,2 53424  53.2165  88.4820 0001428 112.7817 247.3326 15.08876150 53752,6917.77,95.435,540.623,538.647,0.0
53424.0,STARLINK-4532,PAYLOAD,2023-07-27 16:21:12,15.08832781,0.0001648,53.2161,85.8065,75.5626,284.5549,-5.3397e-05,-1.138e-05,0.0,0 STARLINK-4532,1 53424U 22097AN  23208.68139852 -.00001138  00000-0 -53397-4 0  9991,2 53424  53.2161  85.8065 0001648  75.5626 284.5549 15.08832781 53840,6917.902,95.438,540.908,538.627,0.0
